0 FENGYUN 1C DEB
1 29800U 99025CS  13281.73840083  .00001904  00000-0  16603-2 0  1075
2 29800 098.3317 004.9041 0158408 276.8341 215.0064 13.81409756338979
0 FENGYUN 1C DEB
1 29800U 99025CS  13283.46203970  .00001773  00000-0  15473-2 0  1084
2 29800 098.3319 006.4273 0158685 272.1047 146.8239 13.81416832339210
0 FENGYUN 1C DEB
1 29800U 99025CS  13286.74062069  .00001937  00000-0  16871-2 0  1108
2 29800 098.3324 009.3252 0158885 263.1630 251.5719 13.81427244339660
0 FENGYUN 1C DEB
1 29800U 99025CS  13290.19163095  .00002106  00000-0  18296-2 0  1116
2 29800 098.3315 012.3746 0159393 253.7542 133.9869 13.81443168340141
0 FENGYUN 1C DEB
1 29800U 99025CS  13291.20623490  .00002101  00000-0  18254-2 0  1129
2 29800 098.3316 013.2722 0159285 250.9653 139.8293 13.81447348340283
0 FENGYUN 1C DEB
1 29800U 99025CS  13292.95116545  .00002300  00000-0  19940-2 0  1135
2 29800 098.3327 014.8145 0159476 246.2290 177.7209 13.81453604340525
0 FENGYUN 1C DEB
1 29800U 99025CS  13294.17510065  .00002328  00000-0  20176-2 0  1140
2 29800 098.3307 015.8950 0159618 242.9140 144.6161 13.81459861340692
0 FENGYUN 1C DEB
1 29800U 99025CS  13295.18919891  .00002309  00000-0  20002-2 0  1150
2 29800 098.3317 016.7924 0159846 240.1945 147.9378 13.81463347340836
